[{"OBJECT_NAME":"STARLINK-5267","OBJECT_ID":"2023-021AD","EPOCH":"2026-03-09T16:50:55.606272","MEAN_MOTION":14.9832551,"ECCENTRICITY":0.00026107,"INCLINATION":70.0013,"RA_OF_ASC_NODE":164.5372,"ARG_OF_PERICENTER":259.9022,"MEAN_ANOMALY":100.1843,"EPHEMERIS_TYPE":0,"CLASSIFICATION_TYPE":"U","NORAD_CAT_ID":55655,"ELEMENT_SET_NO":999,"REV_AT_EPOCH":16927,"BSTAR":0.00010930978,"MEAN_MOTION_DOT":1.211e-5,"MEAN_MOTION_DDOT":0},{"OBJECT_NAME":"RROCI-2","OBJECT_ID":"2024-043J","EPOCH":"2026-03-09T21:40:56.693280","MEAN_MOTION":14.99383357,"ECCENTRICITY":0.00054118,"INCLINATION":97.8279,"RA_OF_ASC_NODE":200.9973,"ARG_OF_PERICENTER":337.3784,"MEAN_ANOMALY":22.7199,"EPHEMERIS_TYPE":0,"CLASSIFICATION_TYPE":"U","NORAD_CAT_ID":59106,"ELEMENT_SET_NO":999,"REV_AT_EPOCH":10988,"BSTAR":0.00035067832,"MEAN_MOTION_DOT":4.232e-5,"MEAN_MOTION_DDOT":0}]
